GLOBALSTAR M004         
1 25163U 98008B   25205.67573861 -.00000044  00000+0  33252-3 0  9995
2 25163  52.0017 299.7856 0002959  25.5094 139.5012 12.63398926266420
GLOBALSTAR M002         
1 25164U 98008C   25205.51417688 -.00000098  00000+0 -41796-3 0  9995
2 25164  51.9998 146.6123 0001019 230.2256 129.8474 11.61511048188476
GLOBALSTAR M003         
1 25165U 98008D   25205.89870757 -.00000176  00000+0 -92260-3 0  9996
2 25165  51.9986  64.0796 0008548  13.0041  92.0624 12.12069942237792
GLOBALSTAR M014         
1 25306U 98023A   25205.86572999 -.00000069  00000+0  15930-3 0  9993
2 25306  51.9846  68.1635 0001787  63.1551  22.9358 11.65481312195561
GLOBALSTAR M015         
1 25308U 98023C   25205.97152196 -.00000053  00000+0  47465-3 0  9991
2 25308  51.9785 221.9846 0012476 143.6119 225.7428 11.48860399198425
GLOBALSTAR M008         
1 25309U 98023D   25205.83964350 -.00000057  00000+0  30479-3 0  9991
2 25309  51.9970  88.8904 0001945 262.7527 177.6521 12.36071049242504
